[
    {
        "Altitude(m)": 557154.2560541895,
        "Argument of Periapsis(deg)": 0.033114955553567506,
        "Eccentricity": 0.0,
        "Inclination(deg)": 53.0,
        "Latitude(deg)": 40.9679086732139,
        "Longitude(deg)": 20.415389483630822,
        "Mean Anomaly(deg)": -234.996535662112,
        "RAAN(deg)": 344.9507168426401,
        "Satellite Name": "Starlink Shell 1 1522",
        "Satellite Number": 1522,
        "Semi-Major Axis(m)": 6931778.249405717,
        "Time(s)": 950
    },
    {
        "Altitude(m)": 557071.9550100141,
        "Argument of Periapsis(deg)": 0.03346353403307874,
        "Eccentricity": 0.0,
        "Inclination(deg)": 53.0,
        "Latitude(deg)": 40.584944627581514,
        "Longitude(deg)": 21.029038233475923,
        "Mean Anomaly(deg)": -234.36970445855536,
        "RAAN(deg)": 344.9501980725626,
        "Satellite Name": "Starlink Shell 1 1522",
        "Satellite Number": 1522,
        "Semi-Major Axis(m)": 6931778.249405717,
        "Time(s)": 960
    },
    {
        "Altitude(m)": 556989.3390087205,
        "Argument of Periapsis(deg)": 0.03381211251258998,
        "Eccentricity": 0.0,
        "Inclination(deg)": 53.0,
        "Latitude(deg)": 40.19828396296501,
        "Longitude(deg)": 21.63523016703493,
        "Mean Anomaly(deg)": -233.7428732549987,
        "RAAN(deg)": 344.94967930248515,
        "Satellite Name": "Starlink Shell 1 1522",
        "Satellite Number": 1522,
        "Semi-Major Axis(m)": 6931778.249405717,
        "Time(s)": 970
    },
    {
        "Altitude(m)": 556906.4614828124,
        "Argument of Periapsis(deg)": 0.034160690992101214,
        "Eccentricity": 0.0,
        "Inclination(deg)": 53.0,
        "Latitude(deg)": 39.808016831589114,
        "Longitude(deg)": 22.23408130108697,
        "Mean Anomaly(deg)": -233.1160420514419,
        "RAAN(deg)": 344.94916053240763,
        "Satellite Name": "Starlink Shell 1 1522",
        "Satellite Number": 1522,
        "Semi-Major Axis(m)": 6931778.249405717,
        "Time(s)": 980
    },
    {
        "Altitude(m)": 556823.3762077844,
        "Argument of Periapsis(deg)": 0.034509269471612446,
        "Eccentricity": 0.0,
        "Inclination(deg)": 53.0,
        "Latitude(deg)": 39.414231541265124,
        "Longitude(deg)": 22.825709407770134,
        "Mean Anomaly(deg)": -232.48921084788518,
        "RAAN(deg)": 344.9486417623302,
        "Satellite Name": "Starlink Shell 1 1522",
        "Satellite Number": 1522,
        "Semi-Major Axis(m)": 6931778.249405717,
        "Time(s)": 990
    }
]